ONEWEB-0371             
1 49297U 21090U   25299.67414958 -.00000001  00000+0 -33961-4 0  9992
2 49297  87.9245 351.4246 0001972  99.4796 260.6559 13.19724517195655
ONEWEB-0372             
1 49298U 21090V   25299.60316036 -.00000006  00000+0 -47832-4 0  9991
2 49298  87.9192 321.0294 0001873  96.9295 263.2052 13.20770267199004
ONEWEB-0373             
1 49299U 21090W   25299.78163846  .00000033  00000+0  48464-4 0  9990
2 49299  87.9193 321.0072 0001853  90.3529 269.7817 13.20769588200216
ONEWEB-0374             
1 49300U 21090X   25299.81770647 -.00000143  00000+0 -41969-3 0  9996
2 49300  87.9016 336.1881 0001263  97.0659 263.0614 13.14501123196905
ONEWEB-0375             
1 49301U 21090Y   25299.76901223  .00000072  00000+0  14583-3 0  9998
2 49301  87.9192 320.9897 0001451  78.5615 281.5681 13.20770615199716
ONEWEB-0376             
1 49302U 21090Z   25299.67254779 -.00001005  00000+0 -25424-2 0  9990
2 49302  87.9255 351.4097 0001936 104.9726 255.1621 13.19728960195657
ONEWEB-0377             
1 49303U 21090AA  25299.75495073  .00000004  00000+0 -21154-4 0  9999
2 49303  87.9203 320.9898 0001924  87.3060 272.8293 13.20771346199702
ONEWEB-0378             
1 49304U 21090AB  25299.77704310  .00000104  00000+0  22482-3 0  9993
2 49304  87.9201 321.0003 0001705  91.1404 268.9925 13.20772044198975
